[{"OBJECT_NAME":"SAUDISAT 5B","OBJECT_ID":"2018-102C","EPOCH":"2026-03-09T22:59:17.457216","MEAN_MOTION":15.27248504,"ECCENTRICITY":0.00120577,"INCLINATION":97.3281,"RA_OF_ASC_NODE":135.3629,"ARG_OF_PERICENTER":124.0958,"MEAN_ANOMALY":236.1427,"EPHEMERIS_TYPE":0,"CLASSIFICATION_TYPE":"U","NORAD_CAT_ID":43833,"ELEMENT_SET_NO":999,"REV_AT_EPOCH":40064,"BSTAR":0.00024926623,"MEAN_MOTION_DOT":6.596e-5,"MEAN_MOTION_DDOT":0},{"OBJECT_NAME":"STARLINK-36094","OBJECT_ID":"2025-281D","EPOCH":"2026-03-09T03:32:26.075328","MEAN_MOTION":15.27569557,"ECCENTRICITY":0.00015493,"INCLINATION":43.0032,"RA_OF_ASC_NODE":346.4497,"ARG_OF_PERICENTER":260.6256,"MEAN_ANOMALY":99.442,"EPHEMERIS_TYPE":0,"CLASSIFICATION_TYPE":"U","NORAD_CAT_ID":66851,"ELEMENT_SET_NO":999,"REV_AT_EPOCH":1610,"BSTAR":0.0014206979,"MEAN_MOTION_DOT":0.00039027,"MEAN_MOTION_DDOT":0}]
